#dP2019 11 27  0  0  0.00000000      96 __u+U ITR00 FIT  IAC
## 2081 259200.00000000   900.00000000 58814 0.0000000000000
+  115   C01C02C03C04C05C06C07C08C09C10C11C12C13C14C16C19C20
+        C21C22C23C24C25C26C27C28C29C30C32C33C34C35C36C37E01
+        E02E03E04E05E07E08E09E11E12E13E14E15E18E19E21E24E25
+        E26E27E30E31E33E36G01G02G03G04G05G06G07G08G09G10G11
+        G12G13G14G15G16G17G18G19G20G21G22G23G24G25G26G27G28
+        G29G30G31G32J01J02J03J07R01R02R03R05R06R07R08R09R10
+        R11R12R13R14R15R16R17R18R19R20R21R23R26  0  0  0  0
++        13 13 14 13 13  9  9  9  9  9  8  9  9  9  9  8  8
++         9  8  8  9  9  9  8  8  8  8  9  9  9  9  9  9  5
++         6  7  6  7  6  6  6  6  5  5  6  6  6  5  5  6  6
++         6  6  6  5  6  6  5  5  5  5  5  5  5  5  5  5  5
++         5  5  5  5  5  5  6  5  5  5  5  5  5  5  5  5  5
++         5  5  5  5  9  9  9 15  7  7  6  7 11  7  7  7 11
++         7  7  7  6  7  7  7  7  7  7  7  7  9  0  0  0  0
%c M  cc GPS ccc cccc cccc cccc cccc ccccc ccccc ccccc ccccc
%c cc cc ccc ccc cccc cccc cccc cccc ccccc ccccc ccccc ccccc
%f  0.0000000  0.000000000  0.00000000000  0.000000000000000
%f  0.0000000  0.000000000  0.00000000000  0.000000000000000
%i    0    0    0    0      0      0      0      0         0
%i    0    0    0    0      0      0      0      0         0
/* INFORMATION & ANALYSIS CENTER (IAC)            RAPID DATA
/* S/V CLOCKS ARE ALIGNED TO GNSS TIME                      
/* G:C1WC2W R:C1PC2P E:C1XC5X C:C2IC6I J:C1CC2S             
/* PCV:IGS14_2080 OL/AL:FES2004  NONE     YN ORB:CoN CLK:CoN
*  2019 11 27 15  0  0.00000000
PC01 -32302.745754  27086.442838    894.900390    191.299513
PC02   4388.665074  41922.945849   -985.097055    712.609247
PC03 -14784.123962  39457.119235   -165.241058     53.387504
PC04 -39601.237014  14493.355570    434.983159   -424.254075
PC05  21873.069545  35999.162733  -1238.920946   -150.257381
PC06  -8226.297538  33363.933731 -23828.086946    304.192208
PC07 -17641.367583  22060.877710  31377.262952    209.590609
PC08 -24206.909016  33724.843015  -8250.122842    -42.365274
PC09   2855.568399  40671.848100  -9725.119466    146.567934
PC10    238.750386  26346.123977  33132.878930   -406.760814
PC11 -13844.890948 -10404.420375  21928.906732    -27.021052
PC12  -4985.278264 -25808.969406   9350.939528    302.566835
PC13 -11641.519342  34422.590945 -21562.496587    127.623394
PC14 -24639.351493 -12596.280170  -3360.338955    340.505617
PC16  -5553.855512  35223.763798 -22325.222765   -933.822224
PC19  24651.920907   5577.752809  11855.918504    255.958466
PC20  21222.358533  17400.870834  -5123.057495   -343.821177
PC21  -4984.654740 -19239.611287  19590.113530    151.214390
PC22  13837.432186  -9654.637947  22226.484041   -429.140518
PC23 -21798.284182  16219.071323   6384.479824   -874.300399
PC24 -13763.104550 -10403.862109 -21938.341735   -880.425026
PC25 -25234.947229   5047.633599 -10817.778688   -428.172384
PC26   4576.040114 -18711.328032 -20180.370986    475.815758
PC27  -1299.417384  27863.866294   -507.734582    232.537038
PC28 -12177.884532  19441.899113  15904.621963    223.618953
PC29  15904.342671   -302.878989 -22929.270032    151.905760
PC30  10933.049901  19757.463057 -16383.575974    231.103682
PC32   5137.490209  19216.469926 -19569.422296   -862.065030
PC33 -24688.016565  -5504.133309 -11775.240936   -610.537499
PC34 -11059.496260 -19529.401878  16595.815806   -266.674722
PC35  11594.718834 -19768.239454 -15935.728407   -597.916725
PC36  25293.342170  -4286.467563  11014.355803   -892.872299
PC37  -5642.138941  18732.579696  19929.637662   -813.208082
PE01 -17099.836035 -12591.935848 -20615.668237   -740.607149
PE02  17150.277487  12571.864632  20591.480550     94.809378
PE03  17305.312387  23973.923871   1548.788355   -237.641826
PE04 -21578.507071  -9276.992844 -18016.217052   -414.029844
PE05   2838.889748  24754.114663 -15987.978837   -427.667979
PE07  13200.032939 -11057.689362  24073.106957   -304.964789
PE08  21537.051270   9027.663464  18190.337851   6257.216657
PE09 -12943.071922  11156.130791 -24173.868356   6239.428042
PE11 -18130.968640  20521.190349  11230.441381    143.171335
PE12 -17810.905137    963.810811  23627.206009   6079.276836
PE13  18055.267334 -20482.397268 -11414.315750    395.805232
PE14 -13538.926514 -16807.750829  11606.802016   -809.805172
PE15  17819.079413  -1390.060820 -23582.418737    886.351340
PE18  20733.334724  10510.603826 -22108.101353   -905.125083
PE19 -16187.602502 -24778.722704    471.846210     -2.710093
PE21   4884.117487 -16387.458705 -24156.278704   -568.221793
PE24 -24162.574370  10501.828829  13511.194250   5745.406455
PE25  -4994.916130  16389.868610  24148.978183   -496.923805
PE26   7695.860532 -27535.753381   7644.648752   3828.761498
PE27  24122.698952 -10581.835273 -13485.231930    336.894970
PE30  29109.185188   1605.269937   5083.150211   4350.755562
PE31 -29134.380051  -1394.605973  -5034.434119   -470.681628
PE33  -7141.550705 -18540.834625  21949.523468   -471.689934
PE36  -7713.654555  27589.897924  -7452.273766    631.487461
PG01 -12714.343129  21519.921441  -8692.142020   -211.222872
PG02  20416.508235 -11917.844995 -11356.827214   -355.191529
PG03  -4305.710078  14562.872152 -21848.377816    -43.336145
PG04   3256.835335  25905.013219  -4717.081659    -13.725991
PG05  22930.807028  -4370.400505  12709.971904     -3.976469
PG06  17177.431736   1657.647028 -20150.418773   -136.660573
PG07   2316.296610  17673.273395  19823.229294   -157.811487
PG08  -8244.713639  16868.481035  18729.721438    -14.807456
PG09   6769.306911  25636.476435  -1503.771264    -94.037671
PG10 -22439.416368 -11596.134175   8642.274523   -150.796672
PG11  -7522.263913  25648.333369   -763.352518   -435.848686
PG12  10186.941955 -11951.024646 -21612.050244    179.147722
PG13  13485.799264  -8224.298525  21218.466584    -30.233414
PG14 -15721.976915  -6516.395939 -20111.520967    -48.100376
PG15   6785.330056 -18307.913842  17534.028050   -269.684390
PG16 -23970.025268    143.622287  11716.692053    -97.329362
PG17  13769.851171  17354.166131 -14280.807481    170.609866
PG18 -16941.554829  20386.276183   -657.454829    102.957901
PG19  15174.062364  10052.239593 -19630.630420   -234.035539
PG20 -14873.570572 -14226.318530  16791.329585    527.551233
PG21  -6240.449572 -15969.669631  21124.860047    -79.568892
PG22 -12643.606560  12643.984967 -19392.497349   -774.346527
PG23   -200.182194  24145.714978 -10267.118599   -153.021209
PG24  13091.253698 -22129.482715  -6034.213315     -5.465985
PG25  -6151.999670 -16067.184880 -20519.986599    -17.386786
PG26 -26279.234663  -4001.626393   2180.916911     93.434089
PG27 -14040.948441   4614.816856  21948.761164   -132.985678
PG28  21548.787767  13332.595987   8342.430211    753.254413
PG29  -4099.320440 -26119.693750  -2424.474542     33.211005
PG30  12420.083311   9731.996123  21407.525189    -93.218703
PG31 -19001.328837    285.147824 -18762.602567     -6.018247
PG32 -15465.617914 -16062.617300 -14469.419407    138.193505
PJ01 -25175.153083  16689.926768 -24828.113372   -330.154381
PJ02 -30120.769561  26586.125730  17503.105394     -0.156302
PJ03 -26416.448751  25889.209644  25298.947385     -7.657236
PJ07 -25370.935661  33685.200297    -43.329134     -0.028396
PR01 -18205.182150 -17724.718666   2171.372187     53.295908
PR02 -18034.060443  -5776.536026 -17090.238153    399.757493
PR03  -6611.839638   8824.000378 -22968.647180      5.526463
PR05  18838.231500  17173.073960    501.356861     40.180278
PR06  17835.606979   4468.231589  17648.143927    166.463188
PR07   6101.642742  -9302.746518  22981.819811    -29.985104
PR08  -8491.404616 -18182.914493  15798.794073     14.160309
PR09  24588.937243  -6653.458985   1913.281520    103.290566
PR10   2529.932738 -11923.117022 -22370.964740    -51.855764
PR11   1366.183638 -11827.470415 -22545.062538     18.587680
PR12 -15644.808827  -4804.792124 -19543.819612     82.921094
PR13 -24445.408382   5425.340311  -4876.798732    -31.530721
PR14 -18744.479247  12004.638683  12464.459458     45.499224
PR15  -2341.682500  11856.846456  22488.264577    104.912276
PR16  15922.921340   4557.220821  19335.878118     -0.072773
PR17 -10196.167693  20315.485885  11634.388239    279.215635
PR18  -3418.571885  24709.052501  -5198.640670     15.977458
PR19   4632.304807  16210.082719 -19142.778573    -66.084999
PR20  11367.467188  -3737.954584 -22521.125284   -397.339303
PR21   9953.497159 -20768.650311 -10924.627575    -87.949576
PR23  -7618.323898 -10518.983442  21949.361515    269.514883
PR26  10648.428172    197.229652 -23161.369625     12.059735
EOF
